[{"OBJECT_NAME":"STARLINK-31464","OBJECT_ID":"2024-056Y","EPOCH":"2026-03-07T18:36:53.135136","MEAN_MOTION":15.27583803,"ECCENTRICITY":0.00014224,"INCLINATION":42.9986,"RA_OF_ASC_NODE":241.3384,"ARG_OF_PERICENTER":289.0593,"MEAN_ANOMALY":71.0104,"EPHEMERIS_TYPE":0,"CLASSIFICATION_TYPE":"U","NORAD_CAT_ID":59318,"ELEMENT_SET_NO":999,"REV_AT_EPOCH":11086,"BSTAR":6.3376538e-5,"MEAN_MOTION_DOT":1.482e-5,"MEAN_MOTION_DDOT":0},{"OBJECT_NAME":"FLOCK 4G-24","OBJECT_ID":"2025-009AE","EPOCH":"2026-03-09T17:24:07.838208","MEAN_MOTION":15.27784978,"ECCENTRICITY":0.0001802,"INCLINATION":97.4061,"RA_OF_ASC_NODE":151.514,"ARG_OF_PERICENTER":280.2808,"MEAN_ANOMALY":79.8228,"EPHEMERIS_TYPE":0,"CLASSIFICATION_TYPE":"U","NORAD_CAT_ID":62637,"ELEMENT_SET_NO":999,"REV_AT_EPOCH":6373,"BSTAR":0.00038996067,"MEAN_MOTION_DOT":0.00010513,"MEAN_MOTION_DDOT":0}]
